[{"OBJECT_NAME":"STARLINK-4291","OBJECT_ID":"2022-076C","EPOCH":"2026-03-09T12:13:03.705888","MEAN_MOTION":15.08832472,"ECCENTRICITY":0.00014193,"INCLINATION":53.2165,"RA_OF_ASC_NODE":94.9284,"ARG_OF_PERICENTER":87.4333,"MEAN_ANOMALY":272.6821,"EPHEMERIS_TYPE":0,"CLASSIFICATION_TYPE":"U","NORAD_CAT_ID":52988,"ELEMENT_SET_NO":999,"REV_AT_EPOCH":20281,"BSTAR":4.8660881e-5,"MEAN_MOTION_DOT":4.86e-6,"MEAN_MOTION_DDOT":0},{"OBJECT_NAME":"CZ-4B R\/B","OBJECT_ID":"2006-046C","EPOCH":"2026-03-09T16:12:15.627168","MEAN_MOTION":15.16904341,"ECCENTRICITY":0.003169,"INCLINATION":97.5596,"RA_OF_ASC_NODE":113.5843,"ARG_OF_PERICENTER":267.3889,"MEAN_ANOMALY":92.3716,"EPHEMERIS_TYPE":0,"CLASSIFICATION_TYPE":"U","NORAD_CAT_ID":29507,"ELEMENT_SET_NO":999,"REV_AT_EPOCH":6004,"BSTAR":0.0003074379,"MEAN_MOTION_DOT":6.066e-5,"MEAN_MOTION_DDOT":0}]
